{"fetched_at":"2026-03-29T16:36:15Z","count":15609,"tles":[{"name":"STARLINK-31412","line1":"1 59410U 24064N   26087.63516159  .00000627  00000+0  32308-4 0  9998","line2":"2 59410  43.0027 309.1429 0001393 266.3986  93.6707 15.27579577112125","category":"Starlink"}]}