{
  "norad_id": 59410,
  "name": "STARLINK-31412",
  "history": [
    {
      "epoch": "2026-03-28T15:14:37.961376",
      "apogee_km": 484.0061260537368,
      "perigee_km": 482.0945992545012,
      "latitude_deg": 42.7329153719773,
      "longitude_deg": -178.02448736014776,
      "semi_major_axis_km": 6861.187362654118,
      "eccentricity": 0.0001393,
      "inclination_deg": 43.0027,
      "raan_deg": 309.1429,
      "arg_perigee_deg": 266.3986,
      "mean_anomaly_deg": 93.6707,
      "mean_motion_rev_day": 15.27579577
    }
  ]
}